[{"OBJECT_NAME":"STARLINK-31112","OBJECT_ID":"2023-211P","EPOCH":"2026-03-09T02:09:33.670656","MEAN_MOTION":15.27574422,"ECCENTRICITY":0.0001135,"INCLINATION":43.0041,"RA_OF_ASC_NODE":88.6008,"ARG_OF_PERICENTER":265.7593,"MEAN_ANOMALY":94.3129,"EPHEMERIS_TYPE":0,"CLASSIFICATION_TYPE":"U","NORAD_CAT_ID":58680,"ELEMENT_SET_NO":999,"REV_AT_EPOCH":12355,"BSTAR":-2.6823561e-5,"MEAN_MOTION_DOT":-1.0e-5,"MEAN_MOTION_DDOT":0},{"OBJECT_NAME":"COSMOS 886 DEB","OBJECT_ID":"1976-126M","EPOCH":"2026-03-09T22:12:52.532928","MEAN_MOTION":13.82653067,"ECCENTRICITY":0.06461963,"INCLINATION":65.7873,"RA_OF_ASC_NODE":333.1273,"ARG_OF_PERICENTER":140.6509,"MEAN_ANOMALY":224.3408,"EPHEMERIS_TYPE":0,"CLASSIFICATION_TYPE":"U","NORAD_CAT_ID":9655,"ELEMENT_SET_NO":999,"REV_AT_EPOCH":37570,"BSTAR":0.00072487394,"MEAN_MOTION_DOT":4.06e-5,"MEAN_MOTION_DDOT":0}]
